GSAT0216 (GALILEO 20)   
1 43056U 17079B   26201.15518388  .00000057  00000+0  00000+0 0  9992
2 43056  55.0668 220.5989 0004934 278.3287  81.6543  1.70474538 53567
GSAT0217 (GALILEO 21)   
1 43057U 17079C   26201.37599169  .00000059  00000+0  00000+0 0  9995
2 43057  55.0653 220.5906 0004263 292.8030  67.1914  1.70474474 53552
GSAT0218 (GALILEO 22)   
1 43058U 17079D   26201.00948532  .00000056  00000+0  00000+0 0  9995
2 43058  55.0654 220.5982 0005420 275.2933  84.6836  1.70474501 53571
BEIDOU-3 M8             
1 43108U 18003B   26200.51245534 -.00000097  00000+0  00000+0 0  9992
2 43108  54.2897 301.1683 0003125 256.0449 103.9557  1.86230823 57966
BEIDOU-3 M4             
1 43207U 18018A   26200.95566166 -.00000076  00000+0  00000+0 0  9990
2 43207  56.6802  62.0675 0007172  31.2345 328.8714  1.86231755 57357
BEIDOU-3 M3             
1 43208U 18018B   26198.33739683 -.00000055  00000+0  00000+0 0  9992
2 43208  56.6769  62.1579 0007300 348.2235  11.8303  1.86230933 57301
BEIDOU-3 M9             
1 43245U 18029A   26201.77715815 -.00000098  00000+0  00000+0 0  9996
2 43245  54.1607 298.7724 0001225 191.5121 168.5224  1.86228473 56529
BEIDOU-3 M10            
1 43246U 18029B   26201.17439150 -.00000097  00000+0  00000+0 0  9995
2 43246  54.1597 298.8202 0003152  37.2362 322.8234  1.86229084 56495
IRNSS-1I                
1 43286U 18035A   26200.73725213  .00000063  00000+0  00000+0 0  9997
2 43286  28.8289  73.6878 0018365 178.9692   5.3277  1.00273777 30401
COSMOS 2527 [GLONASS-M] 
1 43508U 18053A   26201.40231311 -.00000049  00000+0  00000+0 0  9995
2 43508  65.5961  72.7996 0006344 227.3843 132.6293  2.13101992 62989
BEIDOU-2 IGSO-7         
1 43539U 18057A   26197.82826650 -.00000084  00000+0  00000+0 0  9998
2 43539  55.1987 162.7987 0104914 237.9691 299.1450  1.00242392 29427
GSAT0221 (GALILEO 25)   
1 43564U 18060A   26198.56730463 -.00000104  00000+0  00000+0 0  9991
2 43564  57.1585 340.9609 0002701 283.6812  76.2771  1.70476136 49688
GSAT0222 (GALILEO 26)   
1 43565U 18060B   26201.13334835 -.00000107  00000+0  00000+0 0  9996
2 43565  57.1609 340.8954 0002943 234.5424 125.4233  1.70476030 49773
GSAT0219 (GALILEO 23)   
1 43566U 18060C   26199.59444257 -.00000105  00000+0  00000+0 0  9991
2 43566  57.1608 340.9384 0001857 295.5518  64.4195  1.70476160 49723
GSAT0220 (GALILEO 24)   
1 43567U 18060D   26200.98863111 -.00000107  00000+0  00000+0 0  9994
2 43567  57.1597 340.9001 0002110 284.4251  75.5444  1.70476103 49739
BEIDOU-3 M5             
1 43581U 18062A   26200.32436039  .00000066  00000+0  00000+0 0  9998
2 43581  54.0864 181.2111 0005634 294.4179  65.4981  1.86228602 54231
BEIDOU-3 M6             
1 43582U 18062B   26201.26189926  .00000074  00000+0  00000+0 0  9992
2 43582  54.0864 181.1686 0005402  11.1731 348.8168  1.86227764 54254
BEIDOU-3 M12            
1 43602U 18067A   26201.20034512  .00000073  00000+0  00000+0 0  9993
2 43602  54.1815 179.9209 0008011  30.2508 329.7719  1.86227616 53731
BEIDOU-3 M11            
1 43603U 18067B   26201.33550164  .00000074  00000+0  00000+0 0  9995
2 43603  54.1791 179.8798 0004713  13.7964 346.1934  1.86227099 53764
BEIDOU-3 M13            
1 43622U 18072A   26200.21625144 -.00000072  00000+0  00000+0 0  9998
2 43622  56.6525  61.6027 0005712 334.9985  25.0385  1.86231233 53253
BEIDOU-3 M14            
1 43623U 18072B   26201.15558620 -.00000077  00000+0  00000+0 0  9992
2 43623  56.6556  61.5665 0005474  12.2257 347.8503  1.86231093 53260
BEIDOU-3 M16            
1 43647U 18078A   26201.31045477 -.00000097  00000+0  00000+0 0  9995
2 43647  54.0576 298.8239 0006527  39.3317 320.7532  1.86232352 52775
BEIDOU-3 M15            
1 43648U 18078B   26201.43971641 -.00000098  00000+0  00000+0 0  9991
2 43648  54.0533 298.8194 0003382  57.1368 302.9333  1.86232458 52799
COSMOS 2529 [GLONASS-M] 
1 43687U 18086A   26200.55997012  .00000076  00000+0  00000+0 0  9990
2 43687  64.2970 191.5013 0012113 256.2059 103.6593  2.13101881 59977
BEIDOU-3 M17            
1 43706U 18093A   26201.33116487  .00000075  00000+0  00000+0 0  9995
2 43706  54.1701 181.1718 0010033 295.0625 243.4758  1.86228440 52154
BEIDOU-3 M18            
1 43707U 18093B   26200.39145785  .00000067  00000+0  00000+0 0  9995
2 43707  54.1711 181.1959 0008117 324.4111  35.5097  1.86226601 52131
NAVSTAR 77 (USA 289)    
1 43873U 18109A   26201.16078662 -.00000051  00000+0  00000+0 0  9996
2 43873  55.7017  90.8853 0038740 197.0641 335.1584  2.00563208 55730
BEIDOU-3 IGSO-1         
1 44204U 19023A   26197.32034861 -.00000209  00000+0  00000+0 0  9991
2 44204  58.7368  37.3490 0025911 224.0979 267.2124  1.00282972  7507
